[{"OBJECT_NAME":"STARLINK-30603","OBJECT_ID":"2023-160F","EPOCH":"2026-03-09T02:03:07.299360","MEAN_MOTION":15.26740098,"ECCENTRICITY":8.567e-5,"INCLINATION":43.0002,"RA_OF_ASC_NODE":81.2749,"ARG_OF_PERICENTER":263.4844,"MEAN_ANOMALY":96.591,"EPHEMERIS_TYPE":0,"CLASSIFICATION_TYPE":"U","NORAD_CAT_ID":58080,"ELEMENT_SET_NO":999,"REV_AT_EPOCH":13285,"BSTAR":-0.00014195897,"MEAN_MOTION_DOT":-4.065e-5,"MEAN_MOTION_DDOT":0},{"OBJECT_NAME":"OBJECT A","OBJECT_ID":"2025-013A","EPOCH":"2026-03-09T23:29:31.895232","MEAN_MOTION":15.29260221,"ECCENTRICITY":0.0010321,"INCLINATION":97.6364,"RA_OF_ASC_NODE":244.5149,"ARG_OF_PERICENTER":282.3775,"MEAN_ANOMALY":77.6309,"EPHEMERIS_TYPE":0,"CLASSIFICATION_TYPE":"U","NORAD_CAT_ID":62729,"ELEMENT_SET_NO":999,"REV_AT_EPOCH":6276,"BSTAR":0.0013206527,"MEAN_MOTION_DOT":0.00037616,"MEAN_MOTION_DDOT":0}]
